[{"OBJECT_NAME":"STARLINK-34960","OBJECT_ID":"2025-176X","EPOCH":"2026-03-09T22:45:01.825920","MEAN_MOTION":15.30211699,"ECCENTRICITY":0.00014589,"INCLINATION":53.1605,"RA_OF_ASC_NODE":151.267,"ARG_OF_PERICENTER":81.942,"MEAN_ANOMALY":278.1747,"EPHEMERIS_TYPE":0,"CLASSIFICATION_TYPE":"U","NORAD_CAT_ID":65219,"ELEMENT_SET_NO":999,"REV_AT_EPOCH":3316,"BSTAR":0.00073692971,"MEAN_MOTION_DOT":0.00021538,"MEAN_MOTION_DDOT":0},{"OBJECT_NAME":"FENGYUN 1C DEB","OBJECT_ID":"1999-025CUF","EPOCH":"2026-03-09T01:34:38.628768","MEAN_MOTION":15.17132493,"ECCENTRICITY":0.01273829,"INCLINATION":98.8955,"RA_OF_ASC_NODE":293.2327,"ARG_OF_PERICENTER":89.1897,"MEAN_ANOMALY":272.3925,"EPHEMERIS_TYPE":0,"CLASSIFICATION_TYPE":"U","NORAD_CAT_ID":32185,"ELEMENT_SET_NO":999,"REV_AT_EPOCH":96318,"BSTAR":0.0036969643,"MEAN_MOTION_DOT":0.00091378,"MEAN_MOTION_DDOT":0}]
